CCSDS_OEM_VERS = 2.0  
CREATION_DATE  = 2026-03-24T10:47:07
ORIGINATOR     = ESOC/OPS-GFA                            
 
 



META_START
OBJECT_NAME          = LISA                                    
OBJECT_ID            = -1000                                   
CENTER_NAME          = SUN                     
REF_FRAME            = EME2000 
TIME_SYSTEM          = TCB
START_TIME           = 2036-12-23T00:00:30.346418            
STOP_TIME            = 2047-09-08T19:58:12.431732            
INTERPOLATION        = HERMITE                                 
INTERPOLATION_DEGREE = 7                                       
META_STOP

2046-12-31T21:14:08.304984     3.79810027920482308e+07    1.33223842237391204e+08    5.90803229320299625e+07   -2.86645108299182283e+01    6.85419569205645196e+00    2.91360873909663232e+00   -1.47564876572830315e-06   -5.17588576925185022e-06   -2.29533608339237699e-06
2047-01-01T17:35:47.482661     3.58760267222855091e+07    1.33712327290945351e+08    5.92877144912197217e+07   -2.87696811203480109e+01    6.47409878453711407e+00    2.74506134633914911e+00   -1.39391829832178125e-06   -5.19504641842158170e-06   -2.30347423204873634e-06
2047-01-02T13:57:26.660340     3.37635615832567066e+07    1.34172901051474005e+08    5.94827302333151251e+07   -2.88688498004434173e+01    6.09263654067881966e+00    2.57593478261981756e+00   -1.31189493660695092e-06   -5.21313893870828949e-06   -2.31113874914959073e-06
2047-01-03T10:19:05.838017     3.16440480495109968e+07    1.34605466341239423e+08    5.96653289914744943e+07   -2.89619960013892381e+01    5.70988738995094725e+00    2.40626382264213889e+00   -1.22959506250008458e-06   -5.23015962840208146e-06   -2.31832806497310454e-06
2047-01-04T06:40:45.015696     2.95179282960945703e+07    1.35009931685212553e+08    5.98354721273003370e+07   -2.90491000569373981e+01    5.32593002782353064e+00    2.23608335380329004e+00   -1.14703510686870329e-06   -5.24610493532028884e-06   -2.32504067613825815e-06
2047-01-05T03:02:24.193374     2.73856458983341344e+07    1.35386211378785908e+08    5.99931235603751689e+07   -2.91301435070268866e+01    4.94084340398445754e+00    2.06542837096732468e+00   -1.06423155024706872e-06   -5.26097147846314426e-06   -2.33127515518938450e-06
2047-01-05T23:24:03.371052     2.52476457369667515e+07    1.35734225531344622e+08    6.01382497871416733e+07   -2.92051091014292830e+01    4.55470670912542452e+00    1.89433397060497599e+00   -9.81200922855733862e-07   -5.27475606550468262e-06   -2.33703015833584703e-06
2047-01-06T19:45:42.548730     2.31043739073685780e+07    1.36053900090754956e+08    6.02708198913594410e+07   -2.92739808033702040e+01    4.16759936059813541e+00    1.72283534443363018e+00   -8.97959803926349326e-07   -5.28745570612917065e-06   -2.34230443135121256e-06
2047-01-07T16:07:21.726408     2.09562776316544414e+07    1.36345166853822500e+08    6.03908055483681932e+07   -2.93367437930757013e+01    3.77960098724570326e+00    1.55096777269255659e+00   -8.14524820328044034e-07   -5.29906762120048082e-06   -2.34709681362645469e-06
2047-01-08T12:29:00.904086     1.88038051724202000e+07    1.36607963467773080e+08    6.04981810253868848e+07   -2.93933844711924941e+01    3.39079141371419723e+00    1.37876661718850113e+00   -7.30912644499465240e-07   -5.30958924777540743e-06   -2.35140624038197483e-06
2047-01-09T08:50:40.081765     1.66474057468996421e+07    1.36842233427808702e+08    6.05929231800785586e+07   -2.94438904620310566e+01    3.00125064454930568e+00    1.20626731424672484e+00   -6.47139991682120215e-07   -5.31901823995098338e-06   -2.35523174303415022e-06
2047-01-10T05:12:19.259442     1.44875294403078109e+07    1.37047926075791359e+08    6.06750114596104547e+07   -2.94882506165804870e+01    2.61105884838306057e+00    1.03350536770258894e+00   -5.63223616459405125e-07   -5.32735246555958878e-06   -2.35857244772243383e-06
2047-01-11T01:33:58.437121     1.23246271171427853e+07    1.37224996605106890e+08    6.07444279024390802e+07   -2.95264550152441174e+01    2.22029634251555397e+00    8.60516342068784468e-01   -4.79180308602499974e-07   -5.33458999871264022e-06   -2.36142757199731027e-06
2047-01-11T21:55:37.614798     1.01591503292175904e+07    1.37373406076762140e+08    6.08011571450499073e+07   -2.95584949702448228e+01    1.82904357819667052e+00    6.87335856013288282e-01   -3.95026888205545884e-07   -5.34072910813055963e-06   -2.36379641964159904e-06
2047-01-12T18:17:16.792477     7.99155121919452399e+06    1.37493121451767296e+08    6.08451864358812645e+07   -2.95843630276490011e+01    1.43738112691270636e+00    5.13999576283173276e-01   -3.10780200149209848e-07   -5.34576824141251861e-06   -2.36567837369319977e-06
2047-01-13T14:38:55.970154     5.82228241839265823e+06    1.37584115644856572e+08    6.08765056586622372e+07   -2.96040529689581682e+01    1.04538966798285848e+00    3.40543212209289958e-01   -2.26457107843968189e-07   -5.34970600503175217e-06   -2.36707288757408862e-06
2047-01-14T11:00:35.147833     3.65179693764255196e+06    1.37646367604599565e+08    6.08951073673939705e+07   -2.96175598122171024e+01    6.53149977770594248e-01    1.67002510927046988e-01   -1.42074486280694829e-07   -5.35254114023379438e-06   -2.36797947440434463e-06
2047-01-15T07:13:15.836863     1.49650078762604762e+06    1.37679720968884528e+08    6.09009899184514433e+07   -2.96248486052727564e+01    2.63626114691926761e-01   -5.31139992720575105e-03   -5.82696604141646169e-08   -5.35426438865186016e-06   -2.36839666331542101e-06
2047-01-16T03:25:56.525892    -6.59103840143602341e+05    1.37684728720867634e+08    6.08943341171500236e+07   -2.96260386779075944e+01   -1.25983555082242127e-01   -1.77638156563824312e-01    2.55605408622518781e-08   -5.35489966096656730e-06   -2.36833254736795858e-06
2047-01-16T23:38:37.214923    -2.81457316243914329e+06    1.37661387520725369e+08    6.08751403131742626e+07   -2.96211287868747846e+01   -5.15599853937878994e-01   -3.49942734454683713e-01    1.09399537230245950e-07   -5.35444654893115159e-06   -2.36778701472534070e-06
2047-01-17T19:51:17.903953    -4.96946332250680029e+06    1.37609699742109060e+08    6.08434113835131675e+07   -2.96101188959418913e+01   -9.05143580080946197e-01   -5.22190103383948556e-01    1.93230732111824097e-07   -5.35290479986766515e-06   -2.36676002252296870e-06
2047-01-18T16:03:58.592983    -7.12333050045720860e+06    1.37529673515847206e+08    6.07991527513366342e+07   -2.95930101769107239e+01   -1.29453551960288271e+00   -6.94345232795151146e-01    2.77037517111638351e-07   -5.35027433642567251e-06   -2.36525160556839567e-06
2047-01-19T12:16:39.282013    -9.27573101304161362e+06    1.37421322752473801e+08    6.07423723955477327e+07   -2.95698050103260393e+01   -1.68369645983798222e+00   -8.66373097706771400e-01    3.60803276113367552e-07   -5.34655527243505406e-06   -2.36326188331264219e-06
2047-01-20T08:29:19.971042    -1.14262214051632900e+07    1.37284667147988945e+08    6.06730808529509753e+07   -2.95405069858987375e+01   -2.07254720373227519e+00   -1.03823868507224559e+00    4.44511389031913512e-07   -5.34174792485886496e-06   -2.36079106509572362e-06
2047-01-21T04:42:00.660072    -1.35743585354539230e+07    1.37119732177257389e+08    6.05912912149757221e+07   -2.95051209026685903e+01   -2.46100858493992636e+00   -1.20990700045870758e+00    5.28145235220946586e-07   -5.33585282183526245e-06   -2.35783945366114984e-06
2047-01-22T00:54:41.349103    -1.57196996582444385e+07    1.36926549079448789e+08    6.04970191208939776e+07   -2.94636527689315137e+01   -2.84900148336309789e+00   -1.38134307491875119e+00    6.11688196536575746e-07   -5.32887070682861608e-06   -2.35440744694864087e-06
2047-01-22T21:07:22.038133    -1.78618025042601228e+07    1.36705154839924723e+08    6.03902827494717389e+07   -2.94161098019565017e+01   -3.23644684085126944e+00   -1.55251197192953638e+00    6.95123660055799972e-07   -5.32080253885662607e-06   -2.35049553815006575e-06
2047-01-23T17:20:02.727163    -2.00002253623693958e+07    1.36455592172976881e+08    6.02711028109930828e+07   -2.93625004275172472e+01   -3.62326567677600497e+00   -1.72337879427351748e+00    7.78435020452448275e-07   -5.31164948884004582e-06   -2.34610431404946509e-06
2047-01-24T13:32:43.416192    -2.21345271647161245e+07    1.36177909509820938e+08    6.01395025415961668e+07   -2.93028342792634753e+01   -4.00937910319708735e+00   -1.89390869073509771e+00    8.61605682025993645e-07   -5.30141293203624166e-06   -2.34123445162996239e-06
2047-01-25T09:45:24.105222    -2.42642675775648840e+07    1.35872160996251106e+08    5.99955077018604204e+07   -2.92371221979571096e+01   -4.39470833933608862e+00   -2.06406686248753513e+00    9.44619060388631027e-07   -5.29009443653853519e-06   -2.33588671293926639e-06
2047-01-26T05:58:04.794252    -2.63890071001889855e+07    1.35538406504359484e+08    5.98391465815839693e+07   -2.91653762305982625e+01   -4.77917472507323104e+00   -2.23381856904434795e+00    1.02745858380688264e-06   -5.27769574795133766e-06   -2.33006193826299328e-06
2047-01-27T02:10:45.483283    -2.85083071741309986e+07    1.35176711662725180e+08    5.96704500126906410e+07   -2.90876096294661508e+01   -5.16269973318364883e+00   -2.40312913364959035e+00    1.11010769419863699e-06   -5.26421877008842308e-06   -2.32376103753787069e-06
2047-01-27T22:23:26.172312    -3.06217303051646054e+07    1.34787147909477413e+08    5.94894513922056332e+07   -2.90038368510999511e+01   -5.54520498002891760e+00   -2.57196394798121819e+00    1.19254984778665950e-06   -5.24966554173897541e-06   -2.31698498002457047e-06
2047-01-28T18:31:20.388722    -3.27205569141653627e+07    1.34371489935250014e+08    5.92969715367862806e+07   -2.89144386938857352e+01   -5.92511283434024882e+00   -2.73962680385617308e+00    1.27444529879562273e-06   -5.23410239810845242e-06   -2.30976450227625098e-06
